[{"OBJECT_NAME":"GENMAT-1","OBJECT_ID":"2023-174W","EPOCH":"2026-03-09T18:03:23.351040","MEAN_MOTION":15.32594666,"ECCENTRICITY":0.00074416,"INCLINATION":97.3728,"RA_OF_ASC_NODE":146.8236,"ARG_OF_PERICENTER":169.2515,"MEAN_ANOMALY":190.8888,"EPHEMERIS_TYPE":0,"CLASSIFICATION_TYPE":"U","NORAD_CAT_ID":58276,"ELEMENT_SET_NO":999,"REV_AT_EPOCH":12973,"BSTAR":0.00042157222,"MEAN_MOTION_DOT":0.0001321,"MEAN_MOTION_DDOT":0},{"OBJECT_NAME":"STARLINK-31626","OBJECT_ID":"2024-062U","EPOCH":"2026-03-09T19:44:59.670240","MEAN_MOTION":15.30188131,"ECCENTRICITY":0.00011259,"INCLINATION":53.1591,"RA_OF_ASC_NODE":254.913,"ARG_OF_PERICENTER":104.6706,"MEAN_ANOMALY":255.4419,"EPHEMERIS_TYPE":0,"CLASSIFICATION_TYPE":"U","NORAD_CAT_ID":59392,"ELEMENT_SET_NO":999,"REV_AT_EPOCH":10969,"BSTAR":-1.39835e-6,"MEAN_MOTION_DOT":-4.0e-6,"MEAN_MOTION_DDOT":0}]
